[{"OBJECT_NAME":"STARLINK-31908","OBJECT_ID":"2024-100S","EPOCH":"2026-03-09T12:40:43.455936","MEAN_MOTION":15.27569115,"ECCENTRICITY":0.00013484,"INCLINATION":43.0036,"RA_OF_ASC_NODE":119.2585,"ARG_OF_PERICENTER":225.6709,"MEAN_ANOMALY":134.4033,"EPHEMERIS_TYPE":0,"CLASSIFICATION_TYPE":"U","NORAD_CAT_ID":59901,"ELEMENT_SET_NO":999,"REV_AT_EPOCH":10120,"BSTAR":3.4207979e-5,"MEAN_MOTION_DOT":6.79e-6,"MEAN_MOTION_DDOT":0},{"OBJECT_NAME":"FLOCK 4G-15","OBJECT_ID":"2025-009BX","EPOCH":"2026-03-09T17:13:37.807680","MEAN_MOTION":15.27266411,"ECCENTRICITY":0.00036988,"INCLINATION":97.4054,"RA_OF_ASC_NODE":151.1927,"ARG_OF_PERICENTER":316.8208,"MEAN_ANOMALY":43.274,"EPHEMERIS_TYPE":0,"CLASSIFICATION_TYPE":"U","NORAD_CAT_ID":62678,"ELEMENT_SET_NO":999,"REV_AT_EPOCH":12135,"BSTAR":0.00047574812,"MEAN_MOTION_DOT":0.00012647,"MEAN_MOTION_DDOT":0}]
